{
    "links": {
        "self": "http://www.neowsapp.com/rest/v1/neo/3799285?api_key=iIulBulltgU6a56xZRHN4H3l9WmuAYTsLGpBGhQ2"
    },
    "id": "3799285",
    "neo_reference_id": "3799285",
    "name": "(2018 CL2)",
    "designation": "2018 CL2",
    "nasa_jpl_url": "http://ssd.jpl.nasa.gov/sbdb.cgi?sstr=3799285",
    "absolute_magnitude_h": 25.8,
    "estimated_diameter": {
        "kilometers": {
            "estimated_diameter_min": 0.0183888672,
            "estimated_diameter_max": 0.0411187571
        },
        "meters": {
            "estimated_diameter_min": 18.388867207,
            "estimated_diameter_max": 41.1187571041
        },
        "miles": {
            "estimated_diameter_min": 0.0114263088,
            "estimated_diameter_max": 0.0255500032
        },
        "feet": {
            "estimated_diameter_min": 60.3309310875,
            "estimated_diameter_max": 134.9040630575
        }
    },
    "is_potentially_hazardous_asteroid": false,
    "close_approach_data": [
        {
            "close_approach_date": "1939-01-18",
            "close_approach_date_full": "1939-Jan-18 10:50",
            "epoch_date_close_approach": -976799400000,
            "relative_velocity": {
                "kilometers_per_second": "25.3242130949",
                "kilometers_per_hour": "91167.1671418078",
                "miles_per_hour": "56647.732272086"
            },
            "miss_distance": {
                "astronomical": "0.3961647904",
                "lunar": "154.1081034656",
                "kilometers": "59265408.812836448",
                "miles": "36825817.4004530624"
            },
            "orbiting_body": "Earth"
        },
        {
            "close_approach_date": "2018-02-13",
            "close_approach_date_full": "2018-Feb-13 09:37",
            "epoch_date_close_approach": 1518514620000,
            "relative_velocity": {
                "kilometers_per_second": "13.9387570653",
                "kilometers_per_hour": "50179.52543503",
                "miles_per_hour": "31179.6056793385"
            },
            "miss_distance": {
                "astronomical": "0.041781269",
                "lunar": "16.252913641",
                "kilometers": "6250388.84829703",
                "miles": "3883811.535597814"
            },
            "orbiting_body": "Earth"
        }
    ],
    "orbital_data": {
        "orbit_id": "1",
        "orbit_determination_date": "2018-02-10 15:42:04",
        "first_observation_date": "2018-02-08",
        "last_observation_date": "2018-02-10",
        "data_arc_in_days": 2,
        "observations_used": 17,
        "orbit_uncertainty": "9",
        "minimum_orbit_intersection": ".0343421",
        "jupiter_tisserand_invariant": "3.259",
        "epoch_osculation": "2458158.5",
        "eccentricity": ".6302799236830178",
        "semi_major_axis": "2.346201096295482",
        "inclination": "3.071122659191235",
        "ascending_node_longitude": "105.051847432313",
        "orbital_period": "1312.641942219238",
        "perihelion_distance": ".8674376483773529",
        "perihelion_argument": "89.27632249689277",
        "aphelion_distance": "3.824964544213611",
        "perihelion_time": "2458197.382237827399",
        "mean_anomaly": "349.3363108646381",
        "mean_motion": ".2742560544662778",
        "equinox": "J2000",
        "orbit_class": {
            "orbit_class_type": "APO",
            "orbit_class_description": "Near-Earth asteroid orbits which cross the Earth’s orbit similar to that of 1862 Apollo",
            "orbit_class_range": "a (semi-major axis) > 1.0 AU; q (perihelion) < 1.017 AU"
        }
    },
    "is_sentry_object": false
}